#dP2023  5  7  0  0  0.00000000      96 __u+U ITR00 FIT  IAC
## 2261      0.00000000   900.00000000 60071 0.0000000000000
+  119   C06C07C08C09C10C11C12C13C14C16C19C20C21C22C23C24C25
+        C26C27C28C29C30C32C33C34C35C36C37C38C39C40C41C42C43
+        C44C45C46E02E03E04E05E07E08E09E10E11E12E13E14E15E18
+        E19E21E24E25E26E27E30E31E33E34E36G01G02G03G04G05G06
+        G07G08G09G10G11G12G13G14G15G16G17G18G19G20G21G22G23
+        G24G25G26G27G28G29G30G31G32J02J03J04R01R02R03R04R05
+        R07R08R09R11R12R13R14R15R16R17R18R19R20R21R22R24R25
++         9  9  9 10  8  6  6  8  8  9  7  7  7  6  6  8  8
++         8  7  6  7  7  7  7  7  7  8  7  9  8  7  8  8  7
++         6  7  6  8  7  6  7  6  6  6  7  7  6  6  6  7  7
++         7  6  8  6  6  7  5  9  6  7  7  6  6  6  6  6  7
++         6  6  6  6  6  7  6  7  6  5  7  7  6  6  6  6  6
++         6  7  6  6  6  7  6  6  5  9  8  8  7  6  6  6  5
++         6  6  7  6  8  7  6  6  7  7  8  7  7  7  6  8  6
%c M  cc GPS ccc cccc cccc cccc cccc ccccc ccccc ccccc ccccc
%c cc cc ccc ccc cccc cccc cccc cccc ccccc ccccc ccccc ccccc
%f  0.0000000  0.000000000  0.00000000000  0.000000000000000
%f  0.0000000  0.000000000  0.00000000000  0.000000000000000
%i    0    0    0    0      0      0      0      0         0
%i    0    0    0    0      0      0      0      0         0
/* INFORMATION & ANALYSIS CENTER (IAC)      ULTRA-RAPID DATA
/* S/V CLOCKS ARE ALIGNED TO GNSS TIME                      
/* G:C1WC2W R:C1PC2P E:C1XC5X C:C2IC6I J:C1CC2S             
/* PCV:IGS20_2247 OL/AL:FES2004  NONE     YN ORB:CoN CLK:CoN
*  2023 05 07 12 30  0.00000000
PC06 -15934.503675  38321.584205  -8190.940761   -193.534635
PC07  -3572.146750  32618.984930 -26350.637970     17.096241
PC08 -12732.905734  19840.567611  34922.530746    490.659916
PC09 -10169.773966  37398.855830 -16838.757051    681.599510
PC10   4412.815557  35695.840558 -21311.749654    -52.146642
PC11  16915.568828 -15711.880495  15748.427313    606.241351
PC12  14904.605221   4100.879568  23263.001216    622.351363
PC13  -4211.444658  22091.668487  35803.451511    269.332322
PC14  15448.297327  -5805.624094 -22472.179564    225.780836
PC16 -18468.377972  37782.358717  -4542.708924     86.208562
PC19  -7995.900799  14224.831337  22664.193944   -907.684556
PC20 -19743.483276  -2055.871944  19646.900907    582.521840
PC21  20438.586078  18441.401826  -4453.810730   -913.206193
PC22   8943.964706  23149.131726  12733.818680   -499.811269
PC23    421.555045 -16588.880899  22441.101739   -922.553174
PC24  27535.566622  -3113.402606  -3406.412514    -82.621898
PC25  18788.356262 -14864.200013  14318.663795    121.685870
PC26  20134.113337   8281.511674 -17490.564924   -116.890687
PC27 -11459.456835 -13209.429929 -21768.031607    136.648646
PC28    474.961952 -25501.922681 -11323.052133    100.976373
PC29 -12620.744748  23752.567885  -7454.617637    117.155307
PC30 -17276.676116   6753.261716 -20867.205905     -0.080422
PC32 -20604.130097 -18311.378818   4434.052360   -566.150341
PC33   7951.646595 -14250.674693 -22630.341592   -879.155056
PC34  17341.521373  -8132.694095  20269.604439    165.404687
PC35   -104.039157  25830.057155  10599.350051    632.135355
PC36 -19721.380416  14139.545955 -13752.909984   -455.996576
PC37 -18901.364189  -9472.855073  18216.875749   -784.974725
PC38 -21151.525020  20610.981364  30078.511935     76.753274
PC39 -19478.279855  37518.738023   1163.553439     -2.843790
PC40  -6365.840691  28790.746291 -30065.078849    -22.499301
PC41  -8535.221556 -23041.476165 -13183.132104   -947.120163
PC42  20262.487705   3299.162862 -18839.736106   -702.700933
PC43  13090.257731 -23234.859730   8162.603047     20.263177
PC44  11927.495119  13058.789965  21575.540104     99.159878
PC45    106.973489  16392.397938 -22581.664750    -94.542166
PC46 -27507.607420   4170.636459   1898.534183    -52.309820
PE02 -25667.426119   1173.701699 -14688.871675     36.729068
PE03 -15725.073927   7619.391747  23894.984181   -676.587868
PE04   5864.145424 -25184.735326 -14394.809892   -117.006722
PE05 -16555.448222 -14857.266155  19539.641692    -69.717400
PE07   7518.389220  28399.497286  -3559.368814    -43.260981
PE08  -5940.775763  24993.266492  14699.880447    -79.266996
PE09  -7457.655621 -28449.081451   3431.247905     -6.390613
PE10   8760.844439 -22169.232422 -17559.255185   -531.960263
PE11  -1674.414373 -18236.628054 -23264.980406   1849.314569
PE12  16900.995422 -22296.341042  -9637.151658   -528.699855
PE13    833.216507  18614.263504  23000.893563    -19.086600
PE14  15162.327264  -7806.161783  18716.022036    218.328151
PE15 -17156.721748  22257.662467   9316.500524    -19.996020
PE18 -20050.509291  -2433.621387 -23716.015400     36.103456
PE19  16329.467673  -4509.054876 -24259.294021  -2590.114525
PE21  27061.543506  11750.859113  -2415.751418   -527.714686
PE24 -12028.222701 -18775.493094  19441.428937    -85.532570
PE25 -26941.996246 -11945.233327   2742.363542   -604.655690
PE26  18725.764320   3569.734692  22640.928065     97.161499
PE27  12878.915007  18658.992911 -19035.432045    -43.530005
PE30  -9408.550929  14261.127239 -24182.597942   -153.473223
PE31   8749.989438 -14507.161816  24276.702688   -523.221627
PE33  24870.154905 -12727.045657   9757.366580   -444.798271
PE34 -24853.682478  12880.258368  -9630.277508    -44.149411
PE36 -18123.880235  -4108.108968 -23046.195729    -52.525398
PG01   9947.496764 -19573.149659 -15015.774221    187.176873
PG02  19491.709454   -351.564297  18560.835855   -598.629333
PG03   -334.168181 -15798.324277 -21497.099151   -310.060914
PG04    665.481038 -26104.637903  -4496.969249     35.347126
PG05 -16653.596489   7914.222735  18988.640243   -126.271816
PG06 -20122.847315    873.002978 -17304.760897    588.121297
PG07  -5320.645375 -15233.966473  21485.854115    184.045455
PG08   7770.406482 -19975.928964  15354.087586   -121.275885
PG09  -7660.465350 -24806.425123   5422.035343   -164.114489
PG10  24099.632644  11421.039836   1992.450911    -35.932569
PG11 -23254.141609  11776.817683  -4993.863293   -188.240521
PG12  -3667.704296  15059.754053 -21855.696123   -373.073683
PG13 -13000.557249  13205.815757  18772.141992    516.520369
PG14 -22474.224293 -13624.427704   4366.709501     48.844213
PG15  -5176.112921  21308.001274  14345.915075     37.356245
PG16  19838.435672  -3123.005470  17301.847842   -503.044242
PG17 -12795.711379 -15005.714317 -17314.231337    713.860460
PG18   7904.580736  12695.922624  21943.354799   -256.203440
PG19 -14786.366372  -5933.504734 -21524.640624    313.664338
PG20 -23075.232674   3832.801736  12433.023372    434.897173
PG21  15902.492777 -19763.755541  -5615.046649    153.938394
PG22  15011.620290   1902.671257 -21388.440465    477.223397
PG23  17055.603343  15890.884163  12874.275089     22.296127
PG24 -11840.521725  21278.364637 -10439.219391   -179.871504
PG25   9147.352745  17553.745167 -18149.825095    441.093930
PG26  25612.771602   3402.439638   6763.581702    241.076100
PG27  13240.563941  -9131.996378  20805.423189     42.629069
PG28  19299.608678    630.236562 -18258.506720     75.132605
PG29   3153.054069  26192.549593   2598.622345   -598.527972
PG30 -15683.957883  -7041.169418  20414.410208   -518.522534
PG31  23321.180960  -7222.831760 -11168.451610   -215.609322
PG32  14762.823120  11880.168285 -18511.929904   -470.583783
PJ02 -26780.335364  16400.448085 -23497.331798      0.105961
PJ03 -26388.439169  32174.641961  -2423.717291      3.655259
PJ04 -26899.271329  25561.317699  26047.869208     94.416268
PR01 -15577.416801 -19444.583643   5519.590699     57.038264
PR02 -14416.089878  -5660.132878  20298.148421    -22.869619
PR03  -5444.053297  11326.002867  22258.300767     77.387003
PR04   6325.533376  21611.714335  12026.502795    186.240394
PR05  14610.499760  20366.466361  -4775.034844    112.160956
PR07   4913.634092 -11932.338754 -21948.867772     55.394858
PR08  -6589.335261 -21643.743377 -11690.710229    -70.672196
PR09  25440.038958  -1133.527833   -125.106839    118.837461
PR11   1656.188628 -10954.323971  22985.508089    -50.840775
PR12 -17948.489916  -7445.330712  16541.636237     27.059277
PR13 -25424.555674    -29.181146   2049.094249    -34.768637
PR14 -18126.778119   8299.382104 -15913.455385     24.650911
PR15   -412.044299  11044.046680 -22970.990861     89.424238
PR16  17729.693914   7303.398461 -16794.505719     14.314288
PR17 -14427.435714  20114.775142  -6083.245404    627.834633
PR18  -7187.484859  22116.699185  10554.230068     80.309656
PR19   2554.163054  13913.381792  21220.296490   -231.735111
PR20  14057.183718  -5456.597333  20561.060367    -92.446886
PR21  14141.752702 -20755.119748   4517.920609     -5.645298
PR22   7185.759424 -21705.837758 -11269.826943     81.830883
PR24 -14422.725871   6367.013110 -20038.630097    168.241718
PR25  15465.122983 -19323.004015   6210.927604     60.480920
EOF
